GLOBALSTAR M075         
1 37192U 10054E   25237.45400315 -.00000075  00000+0  15834-3 0  9999
2 37192  51.9971 330.6370 0000632 109.1195 331.1416 12.62266924684596
GLOBALSTAR M073         
1 37193U 10054F   25237.54911684 -.00000109  00000+0 -27294-4 0  9999
2 37193  52.0037 244.2185 0000432  98.3216  54.4885 12.62262173686596
GLOBALSTAR M083         
1 37739U 11033A   25237.64569294 -.00000110  00000+0 -34607-4 0  9998
2 37739  51.9848 192.5602 0000509  55.6620 115.2408 12.62274928655627
GLOBALSTAR M088         
1 37740U 11033B   25237.06102478 -.00000071  00000+0  18064-3 0  9996
2 37740  52.0208 100.0498 0000703  63.1470  90.0266 12.62267460651093
GLOBALSTAR M091         
1 37741U 11033C   25237.52199742 -.00000104  00000+0  39124-6 0  9998
2 37741  51.9999  62.0462 0000924  66.1982 323.9218 12.62269790651940
GLOBALSTAR M085         
1 37742U 11033D   25237.43165715 -.00000106  00000+0 -12556-4 0  9993
2 37742  52.0151  13.3558 0000856  80.5609 318.7226 12.62264007652441
GLOBALSTAR M081         
1 37743U 11033E   25237.45904765 -.00000111  00000+0 -41225-4 0  9993
2 37743  51.9981  16.0465 0000967  92.8485 309.7706 12.62267644652598
GLOBALSTAR M089         
1 37744U 11033F   25237.59173097 -.00000091  00000+0  72694-4 0  9995
2 37744  51.9955 329.8593 0000721 129.8621 336.9275 12.62265783653459
